{
  "type": "FeatureCollection",
  "features": [
    {
      "type": "Feature",
      "properties": {
        "norad_id": 66909,
        "name": "SILVERSAT",
        "group": "stations",
        "lat": -51.57235024007694,
        "lon": 6.294361742868522,
        "alt_km": 410.8814147183366,
        "timestamp": "2025-12-21T09:37:21.406303+00:00",
        "meta_object_name": "SILVERSAT",
        "meta_object_id": "1998-067XV",
        "meta_epoch": "2025-12-21T00:44:56.474880",
        "meta_mean_motion": 15.52677939,
        "meta_eccentricity": 0.0003815,
        "meta_inclination": 51.6312,
        "meta_ra_of_asc_node": 101.1583,
        "meta_arg_of_pericenter": 279.3746,
        "meta_mean_anomaly": 80.6813,
        "meta_ephemeris_type": 0,
        "meta_classification_type": "U",
        "meta_norad_cat_id": 66909,
        "meta_element_set_no": 999,
        "meta_rev_at_epoch": 290,
        "meta_bstar": 0.00085685,
        "meta_mean_motion_dot": 0.00053716,
        "meta_mean_motion_ddot": 0,
        "tle_line1": "1 66909U 98067XV  25355.03120920  .00053716  00000+0  85685-3 0  9993",
        "tle_line2": "2 66909  51.6312 101.1583 0003815 279.3746  80.6813 15.52677939  2905"
      },
      "geometry": {
        "type": "Point",
        "coordinates": [
          6.294361742868522,
          -51.57235024007694
        ]
      }
    },
    {
      "type": "Feature",
      "properties": {
        "norad_id": 66910,
        "name": "1998-067XW",
        "group": "stations",
        "lat": -50.89685544864924,
        "lon": 22.18897511456877,
        "alt_km": 410.84183813881555,
        "timestamp": "2025-12-21T09:37:21.406323+00:00",
        "meta_object_name": "1998-067XW",
        "meta_object_id": "1998-067XW",
        "meta_epoch": "2025-12-21T00:42:22.362336",
        "meta_mean_motion": 15.52668327,
        "meta_eccentricity": 0.0004176,
        "meta_inclination": 51.6309,
        "meta_ra_of_asc_node": 101.1459,
        "meta_arg_of_pericenter": 252.7985,
        "meta_mean_anomaly": 107.2548,
        "meta_ephemeris_type": 0,
        "meta_classification_type": "U",
        "meta_norad_cat_id": 66910,
        "meta_element_set_no": 999,
        "meta_rev_at_epoch": 290,
        "meta_bstar": 0.00074556,
        "meta_mean_motion_dot": 0.00046622,
        "meta_mean_motion_ddot": 0,
        "tle_line1": "1 66910U 98067XW  25355.02942549  .00046622  00000+0  74556-3 0  9996",
        "tle_line2": "2 66910  51.6309 101.1459 0004176 252.7985 107.2548 15.52668327  2908"
      },
      "geometry": {
        "type": "Point",
        "coordinates": [
          22.18897511456877,
          -50.89685544864924
        ]
      }
    },
    {
      "type": "Feature",
      "properties": {
        "norad_id": 66911,
        "name": "1998-067XX",
        "group": "stations",
        "lat": -46.102852557441146,
        "lon": 43.84159103551856,
        "alt_km": 409.8491727194387,
        "timestamp": "2025-12-21T09:37:21.406344+00:00",
        "meta_object_name": "1998-067XX",
        "meta_object_id": "1998-067XX",
        "meta_epoch": "2025-12-21T00:38:37.983264",
        "meta_mean_motion": 15.53092393,
        "meta_eccentricity": 0.0003884,
        "meta_inclination": 51.6313,
        "meta_ra_of_asc_node": 101.1286,
        "meta_arg_of_pericenter": 257.9049,
        "meta_mean_anomaly": 102.1506,
        "meta_ephemeris_type": 0,
        "meta_classification_type": "U",
        "meta_norad_cat_id": 66911,
        "meta_element_set_no": 999,
        "meta_rev_at_epoch": 289,
        "meta_bstar": 0.00083173,
        "meta_mean_motion_dot": 0.00052914,
        "meta_mean_motion_ddot": 0,
        "tle_line1": "1 66911U 98067XX  25355.02682851  .00052914  00000+0  83173-3 0  9990",
        "tle_line2": "2 66911  51.6313 101.1286 0003884 257.9049 102.1506 15.53092393  2896"
      },
      "geometry": {
        "type": "Point",
        "coordinates": [
          43.84159103551856,
          -46.102852557441146
        ]
      }
    },
    {
      "type": "Feature",
      "properties": {
        "norad_id": 66912,
        "name": "1998-067XY",
        "group": "stations",
        "lat": -41.877073554240205,
        "lon": -35.36450921617994,
        "alt_km": 413.04506755055627,
        "timestamp": "2025-12-21T09:37:21.406367+00:00",
        "meta_object_name": "1998-067XY",
        "meta_object_id": "1998-067XY",
        "meta_epoch": "2025-12-19T14:52:14.043072",
        "meta_mean_motion": 15.51780846,
        "meta_eccentricity": 0.0004012,
        "meta_inclination": 51.6307,
        "meta_ra_of_asc_node": 108.231,
        "meta_arg_of_pericenter": 260.881,
        "meta_mean_anomaly": 99.1725,
        "meta_ephemeris_type": 0,
        "meta_classification_type": "U",
        "meta_norad_cat_id": 66912,
        "meta_element_set_no": 999,
        "meta_rev_at_epoch": 267,
        "meta_bstar": 0.00063264,
        "meta_mean_motion_dot": 0.00038197,
        "meta_mean_motion_ddot": 0,
        "tle_line1": "1 66912U 98067XY  25353.61960698  .00038197  00000+0  63264-3 0  9998",
        "tle_line2": "2 66912  51.6307 108.2310 0004012 260.8810  99.1725 15.51780846  2678"
      },
      "geometry": {
        "type": "Point",
        "coordinates": [
          -35.36450921617994,
          -41.877073554240205
        ]
      }
    }
  ]
}